ONEWEB-0531             
1 54146U 22138AK  25008.76824178  .00000047  00000+0  83601-4 0  9996
2 54146  87.9247  18.7722 0002784  94.1985 265.9467 13.20772709110080
ONEWEB-0535             
1 54147U 22138AL  25008.80617594  .00000042  00000+0  73075-4 0  9993
2 54147  87.9148  49.2082 0002100  95.4600 264.6773 13.19726138107679
ONEWEB-0536             
1 54148U 22138AM  25008.75561836  .00000048  00000+0  86799-4 0  9998
2 54148  87.9244  18.8218 0002852  96.6225 263.5233 13.20771734110071
ONEWEB-0527             
1 54642U 22166A   25008.97375654  .00001063  00000+0  25426-2 0  9999
2 54642  87.9309 348.4431 0001743  87.8849 272.2484 13.21833804102730
ONEWEB-0528             
1 54643U 22166B   25008.90437062  .00000030  00000+0  40641-4 0  9996
2 54643  87.9315 348.4508 0001678  86.6783 273.4543 13.21827891102282
ONEWEB-0539             
1 54644U 22166C   25009.16774225 -.00000015  00000+0 -66689-4 0  9996
2 54644  87.9313 348.4033 0001708  78.7273 281.4053 13.21826475102769
ONEWEB-0540             
1 54645U 22166D   25008.85943050  .00000008  00000+0 -12693-4 0  9993
2 54645  87.9308 348.4712 0001756  78.1524 281.9807 13.21828914102261
ONEWEB-0542             
1 54646U 22166E   25008.87441096  .00000071  00000+0  14110-3 0  9993
2 54646  87.9312 348.4604 0001900  71.1194 289.0146 13.21826103102278
